#dP2021  8 13  0  0  0.00000000      96 __u+U ITR00 FIT  IAC
## 2170 432000.00000000   900.00000000 59439 0.0000000000000
+  116   C06C07C08C09C10C11C12C13C14C16C19C20C21C22C23C24C25
+        C26C27C28C29C30C32C33C34C35C36C37C38C39C40C41C42C43
+        C44C45C46E01E02E03E04E05E07E08E09E11E12E13E14E15E18
+        E19E21E24E25E26E27E30E31E33E36G01G02G03G04G05G06G07
+        G08G09G10G12G13G14G15G16G17G18G19G20G21G22G23G24G25
+        G26G27G28G29G30G31G32J01J02J03R01R02R03R04R05R07R08
+        R09R11R12R13R14R15R16R17R18R19R20R21R22R24  0  0  0
++         8 11  8  8  9  8  7  8  7  7  7  7  6  4  6  6  8
++         8  6  6  7  7  5  7  8  7  7  8  9  8  9  8  7  8
++         7  8  7  6  7  8  6  8  6  7  8  7  6  6  5  6  6
++         6  7  6  6  6  7  7  8  6  7  7  7  6  6  6  6  6
++         7  7  6  6  6  5  7  6  6  6  5  6  6  6  5  6  6
++         6  6  6  7  6  6  6 10  7  8  7  8  7  7  7  6  6
++         6  6  6  7  6  7  7  7  7  8  7  7  8  5  0  0  0
%c M  cc GPS ccc cccc cccc cccc cccc ccccc ccccc ccccc ccccc
%c cc cc ccc ccc cccc cccc cccc cccc ccccc ccccc ccccc ccccc
%f  0.0000000  0.000000000  0.00000000000  0.000000000000000
%f  0.0000000  0.000000000  0.00000000000  0.000000000000000
%i    0    0    0    0      0      0      0      0         0
%i    0    0    0    0      0      0      0      0         0
/* INFORMATION & ANALYSIS CENTER (IAC)      ULTRA-RAPID DATA
/* S/V CLOCKS ARE ALIGNED TO GNSS TIME                      
/* G:C1WC2W R:C1PC2P E:C1XC5X C:C2IC6I J:C1CC2S             
/* PCV:IGS14_2163 OL/AL:FES2004  NONE     YN ORB:CoN CLK:CoN
*  2021 08 13  7  0  0.00000000
PC06 -13524.297918  39878.991892  -3520.848549    751.273739
PC07  -9084.124043  26888.232954 -30738.217264     15.956968
PC08 -22282.985575  20855.048724  29014.541374   -920.309456
PC09  -8273.931212  39537.390349 -12555.972024    -23.196747
PC10   3956.973262  33374.183833 -24930.201225     -9.146643
PC11 -17973.996515   5785.461898 -20473.798401    513.903584
PC12  -9826.465996 -13390.034481 -22401.415952    783.810960
PC13  -6157.761723  23480.515464  34529.042493    371.704281
PC14 -19681.470845  -5010.538392  19183.687555    724.812836
PC16 -15372.752024  39392.761408   -263.784814   -863.693736
PC19  15365.007541  -5284.402815 -22664.464323    945.033651
PC20  20537.585843  12694.070935 -13955.158397   -821.051363
PC21 -13651.773342 -24085.505570  -3597.142539   -940.619047
PC22   1133.238025 -20848.949250 -18531.563690   -950.568280
PC23 -10770.079273  15539.912450 -20510.480903   -962.079083
PC24 -25410.886243  -5426.064042  10151.979706   -964.295073
PC25 -25369.864350   8323.118183  -8080.901070   -871.109801
PC26 -11536.725754 -14061.375780  21152.205383    865.129776
PC27   3388.772990  21090.955042  17940.081069    580.074917
PC28 -10731.017646  25630.950445   2513.517032    -39.137683
PC29  17957.529510 -15811.238899  14355.202680    432.642660
PC30  15425.026196   4262.878448  22852.007655    477.267819
PC32  13773.173321  23984.962745   3670.518096   -930.918750
PC33 -15440.794895   5269.495343  22643.223612   -956.487207
PC34 -15813.440950  -3406.252288 -22753.450613   -606.208441
PC35  10064.723036 -25924.331906  -2139.992485   -142.051342
PC36  25735.703127  -7523.762257   7766.253649   -742.953004
PC37  10241.538617  14596.475157 -21444.686835   -861.640741
PC38 -19824.050341  23435.058452  28842.276884    168.241873
PC39 -16355.447114  38535.461533   5639.575388     32.723966
PC40   1093.584734  31029.067139 -28420.569388 999999.999999
PC41  -1437.732910  20658.306889  18751.178267   -961.654957
PC42 -20584.403123 -13373.977198  13329.854811   -932.275774
PC43 -18195.846140  15195.897558 -14746.082419 999999.999999
PC44  -4090.663612 -21110.511024 -17783.869987    338.428281
PC45  10579.701029 -15495.689712  20674.861526    519.246435
PC46  25962.358788   4592.673604  -9181.273980    134.477223
PE01  20394.531275  17749.535245 -12040.682066  -1170.583920
PE02 -20484.908486 -17714.784734  11941.354011    239.559051
PE03 -11886.463316 -23939.951050  12736.753511   -463.142905
PE04  17296.569687   5064.057225 -23474.584657   -833.921603
PE05    598.793109 -29050.707034  -5660.221216   -257.652353
PE07 -12599.497262  17169.675318  20558.265411   -573.173757
PE08 -17191.456002  -4606.642448  23655.895572   5954.917202
PE09  12296.181288 -17422.912587 -20532.759548   5567.841331
PE11  23361.738152 -18162.307391   -565.175669   5584.863234
PE12  23575.701517  -3488.805026  17541.862188   5062.916099
PE13 -23503.157274  17992.177552     80.467636    420.212965
PE14  14211.137892   5456.108351  17891.447499  -1533.760724
PE15 -23542.034529   3621.734046 -17572.517895    798.232033
PE18 -19023.067796  -9801.193618 -24426.121660  -1682.071150
PE19  10585.108332  25435.069638 -10818.716075    350.962437
PE21   1929.020788  18047.462845 -23374.924823   -681.710136
PE24  19344.258579  -7251.572425  21201.212530  -1060.080521
PE25  -1682.757189 -17997.994503  23452.567258   -543.091890
PE26  -8769.733566  21633.296427  18191.413703   1467.438860
PE27 -18499.711006   7972.413003 -21675.732171    -96.810291
PE30 -27918.372974  -7600.837023  -6221.210450   2706.026694
PE31  27903.377850   6694.702261   7274.281972   -484.354789
PE33   9719.940222  12842.628389  24832.319973   -466.348357
PE36   9628.966880 -21734.266139 -17640.862625   -247.703685
PG01   4549.432884 -17035.997074 -20023.888539    599.133541
PG02 -21927.449012  14973.051097   2189.413301   -625.992338
PG03  -4218.276390 -18284.709021 -18940.900033   -252.465014
PG04    436.354698 -26375.965993   2793.222675   -203.832354
PG05  -8393.747758  12700.925255  21601.974250    -50.965454
PG06 -24291.290841   5155.768135  -9444.392653     55.218461
PG07 -11596.539943 -11347.418091  21464.160950    223.886094
PG08   6627.966650 -24182.848596   8256.270589    -32.453308
PG09  -8307.230233 -21631.799803  12897.772343   -358.654721
PG10  23672.389429  11135.881057  -5265.928246   -181.481296
PG12   2728.811256  18509.057854 -19155.003954    -82.202918
PG13 -12955.913035  18741.386390  13389.570362    170.661329
PG14 -23202.606986 -11554.848225  -5914.153894     24.952207
PG15  -3910.475253  24936.271423   7297.590285   -128.737400
PG16  14525.134727  -6759.029403  21021.206334   -372.895259
PG17 -12870.416644  -9461.727172 -20790.328525    488.598457
PG18  13339.964051   9541.747834  20895.044689    333.215451
PG19 -15094.568558    459.266063 -22115.938857     38.965989
PG20 -18755.660553   5668.325406  17780.816940    519.679883
PG21  12163.077082 -18489.476159 -13589.690736    136.928916
PG22   3007.415623 -15832.305661 -20960.007278   -539.524592
PG23  19704.923262  16893.970663   5772.537396     71.496355
PG24  -8211.398832  19129.354159 -16519.733150    206.740423
PG25  13769.411575  19355.589685 -12416.129607    190.282107
PG26  22322.282770    912.489052  14511.585137    122.041939
PG27  12013.379650 -16789.019996  16317.926818   -177.547560
PG28 -22318.259609  -8075.510254 -11174.831507    520.767737
PG29   4753.700886  23341.064091  11633.681246   -395.438325
PG30 -21384.404567  -2673.501371  15746.114764   -461.651132
PG31  25051.374378  -5989.139967  -7499.947867   -133.999255
PG32  14726.376535   5546.749895 -21302.774757      8.048793
PJ01 -24965.338290  24504.625084  28540.933680   -438.427901
PJ02 -29403.700254  14402.562568 -22038.298339     -1.519642
PJ03 -24877.051518  32595.265118  -5019.456121     -0.779495
PR01  -5053.844396  13224.135701  21214.777667     83.764562
PR02   7357.439345  23746.764324   5890.695006    489.485447
PR03  13958.666220  18067.654191 -11389.205800     41.148079
PR04  12394.575301   2409.633393 -22139.683832     99.939740
PR05   4096.305959 -14559.856984 -20524.163757     77.047880
PR07 -14053.739058 -17503.860117  12107.995053    -41.688539
PR08 -12495.467138  -2218.278550  22176.186055    -60.362302
PR09  -5462.794396 -11465.356892  22155.110600      7.816618
PR11 -25037.689603    117.582800  -4901.806691     46.318385
PR12 -13984.216807   8059.932681 -19713.467093    253.234411
PR13   4516.927874  11201.615311 -22474.366510    -59.109144
PR14  21301.330836   7757.655264 -11655.200434     67.588915
PR15  24898.601238   -123.679576   5556.943476    102.104003
PR16  12823.568241  -8897.219228  20201.361056    -19.498258
PR17   7958.772610   6973.925946  23210.586761    449.363413
PR18  16239.351014  -8552.590506  17701.048968     86.761409
PR19  16796.937938 -18855.028740   3647.645631   -155.229317
PR20   6288.848607 -19195.079019 -15554.799717    -54.064563
PR21  -8676.276316  -5873.506857 -23262.631176   -231.151523
PR22 -16572.322054   9432.004437 -17010.678536   -127.616034
PR24  -5163.669110  19217.571123  15955.778764     54.306809
EOF
